LEMUR-2-STARLIGHT       
1 66783U 25276DY  26198.00435941  .00003825  00000+0  31670-3 0  9991
2 66783  97.5234 267.6244 0014753  41.8788 318.3562 14.99368921 34668
LEMUR-2-TARTIFLETTE     
1 66784U 25276DZ  26197.73583064  .00003442  00000+0  28561-3 0  9991
2 66784  97.5233 267.3730 0013920  51.1069 309.1394 14.99350642 34624
LEMUR-2-VUKASIN         
1 66785U 25276EA  26198.17173854  .00002310  00000+0  18760-3 0  9996
2 66785  97.5216 268.1562 0002731  48.5948 311.5510 15.00556240 34646
LEMUR-2-HOTSPUR-TOM     
1 66786U 25276EB  26198.13078395  .00002945  00000+0  24574-3 0  9991
2 66786  97.5214 267.7279 0013720  41.5297 318.6966 14.99252822 34611
LEMUR-2-MYRA            
1 66787U 25276EC  26198.00353479  .00003308  00000+0  26550-3 0  9997
2 66787  97.5220 267.9128 0018672  48.8003 311.4828 15.00601403 34681
LEMUR-2 FIKRETDENGIZ    
1 67363U 26004A   26197.91552955  .00001631  00000+0  18124-3 0  9992
2 67363  97.8028 196.0220 0010084  50.9013 309.3099 14.88523294 27707
TWILIGHT-1 OBJECT B     
1 67364U 26004B   26197.48272794  .00000869  00000+0  10103-3 0  9996
2 67364  97.8076 195.5957 0009653  42.1314 318.0643 14.87795828 27647
LEMUR-2-MARIO-SOUSA     
1 67365U 26004C   26197.89514875  .00002076  00000+0  22784-3 0  9991
2 67365  97.8000 195.9968 0009722  52.5252 307.6848 14.88735447 27715
LEMUR-2-SONNENBLUME     
1 67367U 26004E   26197.89831647  .00001322  00000+0  14830-3 0  9998
2 67367  97.8001 195.9719 0009301  53.4556 306.7516 14.88457950 27714
LEMUR-2-WOBLER          
1 67368U 26004F   26197.95453834  .00002026  00000+0  22273-3 0  9996
2 67368  97.8051 196.1802 0009372  44.9852 315.2123 14.88705265 27723
LEMUR-2-GRAM-E-SUE      
1 67370U 26004H   26197.54348649  .00001211  00000+0  13580-3 0  9997
2 67370  97.7987 195.6391 0008517  57.3306 302.8731 14.88592787 27665
LEMUR-2-KATIE           
1 67387U 26004AA  26197.56609001  .00002199  00000+0  23230-3 0  9998
2 67387  97.8044 196.2176 0003383  30.9861 329.1556 14.90258470 27685
LEMUR-2-HCS-BAZUS       
1 67388U 26004AB  26197.96729646  .00001530  00000+0  16332-3 0  9994
2 67388  97.8039 196.5918 0002860  29.0144 331.1232 14.90268291 27742
